IRIDIUM 57 [-]          
1 25273U 98019B   23362.83417026  .00000483  00000+0  16264-3 0  9999
2 25273  86.3960   9.8688 0002233  90.8099 269.3353 14.35029370347848
IRIDIUM 63 [-]          
1 25286U 98021B   23362.92109804  .00000652  00000+0  21969-3 0  9994
2 25286  86.3986 306.7668 0002144  91.8904 268.2538 14.35545108346882
IRIDIUM 69 [-]          
1 25319U 98026A   23362.93327887  .00000632  00000+0  19562-3 0  9994
2 25319  86.3987 321.6520 0002986  39.6858 320.4558 14.39724285345875
IRIDIUM 71 [-]          
1 25320U 98026B   23362.90207342  .00000735  00000+0  22714-3 0  9993
2 25320  86.3979 316.4708 0004230  72.9349 287.2313 14.40052347346388
IRIDIUM 73 [-]          
1 25344U 98032C   23362.85711203  .00000855  00000+0  21466-3 0  9992
2 25344  86.4420 274.1736 0002406  69.4266 290.7197 14.50214649352796
IRIDIUM 82 [-]          
1 25467U 98051A   23362.69296239  .00010232  00000+0  57232-3 0  9998
2 25467  86.3934   6.6190 0143368 126.9713 234.4749 15.04855482342650
IRIDIUM 2 [-]           
1 25527U 98066A   23362.90490408  .00043442  00000+0  79153-3 0  9994
2 25527  85.5156  52.2256 0001883 235.8298 124.2781 15.49292699381151
